STARLINK-1552
1 46076U 20055BB  26061.14969153  .00001167  00000+0  97262-4 0  9992
2 46076  53.0559 130.4693 0001519  97.1850 262.9312 15.06397709308153
STARLINK-2100
1 47380U 21005AH  26061.17227041  .00001448  00000+0  11609-3 0  9995
2 47380  53.0553  65.3667 0001402  89.7336 270.3813 15.06397503282332
STARLINK-2131
1 47728U 21017G   26060.81012390  .00000445  00000+0  48799-4 0  9990
2 47728  53.0544 236.9898 0001461  86.6347 273.4809 15.06397458276738
STARLINK-2745
1 48671U 21044AK  26060.56044229  .00000632  00000+0  61350-4 0  9992
2 48671  53.0556 148.4222 0001260  85.0577 275.0556 15.06397269262611
STARLINK-2236
1 48582U 21041AF  26061.19394191  .00001209  00000+0  10007-3 0  9999
2 48582  53.0551 130.4341 0001386  85.6138 274.5009 15.06397253264564
STARLINK-2292
1 48023U 21024AY  26061.15937036  .00002485  00000+0  18565-3 0  9991
2 48023  53.0554   5.4236 0001381  85.1408 274.9738 15.06397061273493
STARLINK-1542
1 46073U 20055AY  26061.17918153  .00002612  00000+0  19420-3 0  9991
2 46073  53.0546 130.3355 0001276  80.9659 279.1474 15.06397024308178
STARLINK-2084
1 47368U 21005V   26061.11789858  .00000738  00000+0  68409-4 0  9996
2 47368  53.0543  95.6105 0001337  92.1169 267.9973 15.06396991281900
STARLINK-2648
1 48679U 21044AT  26060.50142892  .00000410  00000+0  46431-4 0  9996
2 48679  53.0579 148.3793 0001676  87.3434 272.7747 15.06396963262610
STARLINK-2381
1 47800U 21018P   26060.85895913  .00000217  00000+0  33464-4 0  9996
2 47800  53.0537 266.7716 0001264  90.9474 269.1660 15.06396861275699
STARLINK-3677
1 51970U 22025Q   26061.00168213  .00001647  00000+0  12947-3 0  9992
2 51970  53.0550  65.4157 0001400  88.2771 271.8378 15.06396461219760
STARLINK-2524
1 48304U 21036AE  26061.15199656  .00001209  00000+0  10007-3 0  9990
2 48304  53.0551 125.4583 0001365  92.7333 267.3813 15.06396270267037
STARLINK-2130
1 47405U 21005BJ  26061.10684395  .00002565  00000+0  19101-3 0  9991
2 47405  53.0545  95.6596 0001440  94.2933 265.8220 15.06396157281899
STARLINK-2338
1 47793U 21018G   26060.88845131  .00000343  00000+0  41950-4 0  9996
2 47793  53.0541 266.6382 0001408  95.7978 264.3171 15.06395963275691
STARLINK-1549
1 46074U 20055AZ  26061.16443647  .00001136  00000+0  95162-4 0  9990
2 46074  53.0552 130.4016 0001493  88.5382 271.5778 15.06395959308166
STARLINK-3671
1 51972U 22025S   26061.05696945  .00000786  00000+0  71664-4 0  9992
2 51972  53.0553  65.1489 0001334  95.1418 264.9723 15.06395623219778
STARLINK-2055
1 47358U 21005K   26061.14920749  .00000647  00000+0  62318-4 0  9996
2 47358  53.0547  65.4590 0001421  91.3383 268.7769 15.06395456282323
STARLINK-2050
1 47357U 21005J   26061.12163911  .00000630  00000+0  61197-4 0  9999
2 47357  53.0547  96.0182 0001391  92.0172 268.0976 15.06395308281899
STARLINK-2485
1 48142U 21027BC  26061.07275000  .00000628  00000+0  61039-4 0  9995
2 48142  53.0564 185.8125 0001873  89.3294 270.7910 15.06395277271559
STARLINK-2399
1 47816U 21018AF  26060.89766349 -.00000548  00000+0 -17922-4 0  9997
2 47816  53.0543 286.5973 0001152  90.4248 269.6873 15.06395038275414
STARLINK-3699
1 51966U 22025L   26061.00535925  .00000977  00000+0  84499-4 0  9992
2 51966  53.0550  65.3242 0001419  87.9626 272.1525 15.06394955219768
STARLINK-2251
1 48594U 21041AT  26061.18333846  .00002389  00000+0  17926-3 0  9998
2 48594  53.0551 145.4036 0001429  96.4769 263.6382 15.06394636264354
STARLINK-2507
1 48316U 21036AS  26060.90873272  .00000873  00000+0  77475-4 0  9997
2 48316  53.0555 126.5500 0001466  88.3899 271.7258 15.06394625266993
STARLINK-2459
1 48119U 21027AD  26061.03494442 -.00000048  00000+0  15665-4 0  9999
2 48119  53.0559 185.9739 0001895  83.0701 277.0503 15.06394504271535
STARLINK-2214
1 48566U 21041P   26061.01468998  .00001846  00000+0  14283-3 0  9996
2 48566  53.0564 176.0456 0001026  89.2520 270.8587 15.06394493263909
STARLINK-2145
1 48555U 21041C   26061.01837073  .00000671  00000+0  63977-4 0  9998
2 48555  53.0560 176.0572 0001377  84.9827 275.1319 15.06394104263903
STARLINK-2112
1 47391U 21005AU  26061.16025882  .00002998  00000+0  22010-3 0  9994
2 47391  53.0551  65.4205 0001324  92.7931 267.3209 15.06394097282328
STARLINK-2453
1 47845U 21018BL  26060.88661602  .00000389  00000+0  45018-4 0  9992
2 47845  53.0541 286.6469 0001502  89.0330 271.0831 15.06394096275425
STARLINK-3694
1 51957U 22025B   26061.17261476  .00000097  00000+0  25372-4 0  9995
2 51957  53.0544  69.6157 0001203  84.9809 275.1317 15.06394093219714
STARLINK-2473
1 48131U 21027AR  26061.04694701  .00005234  00000+0  37004-3 0  9995
2 48131  53.0547 185.9272 0001420  88.9441 271.1711 15.06393831271546
STARLINK-2135
1 47408U 21005BM  26061.17964235  .00000870  00000+0  77325-4 0  9995
2 47408  53.0551  65.3335 0001347  86.9388 273.1755 15.06393619282337
STARLINK-2105
1 47385U 21005AN  26061.14647068  .00000717  00000+0  67049-4 0  9990
2 47385  53.0545  65.4809 0001436  85.6697 274.4456 15.06393607282327
STARLINK-2408
1 47823U 21018AN  26061.03679625  .00001205  00000+0  99816-4 0  9993
2 47823  53.0533 285.9633 0001389  97.0439 263.0708 15.06393583275445
STARLINK-2104
1 47384U 21005AM  26061.15018339 -.00000030  00000+0  16877-4 0  9995
2 47384  53.0537  65.7048 0001526  92.0300 268.0864 15.06393570282329
STARLINK-2101
1 47381U 21005AJ  26060.32589434  .00000742  00000+0  68722-4 0  9994
2 47381  53.0549  74.2530 0001385  91.3572 268.7576 15.06393518282134
STARLINK-2109
1 47388U 21005AR  26061.11053256  .00000246  00000+0  35429-4 0  9994
2 47388  53.0543  95.6448 0001289  83.1857 276.9279 15.06393466281893
STARLINK-2567
1 48276U 21036A   26060.44661585 -.00000293  00000+0 -76654-6 0  9991
2 48276  53.0552  83.6240 0001453  88.1589 271.9566 15.06393405267562
STARLINK-3691
1 51960U 22025E   26061.16892477  .00001777  00000+0  13820-3 0  9999
2 51960  53.0548  69.6094 0001456  99.7427 260.3726 15.06393246219711
STARLINK-2071
1 47361U 21005N   26061.15752167 -.00000009  00000+0  18269-4 0  9997
2 47361  53.0549  65.4310 0001304  86.8490 273.2648 15.06393187282323
STARLINK-3704
1 51959U 22025D   26061.17630685  .00003622  00000+0  26195-3 0  9999
2 51959  53.0547  69.5726 0001483  96.0119 264.1039 15.06393168219719
STARLINK-2493
1 48150U 21027BL  26061.06538063 -.00000027  00000+0  17105-4 0  9993
2 48150  53.0575 185.8470 0002463  82.5911 277.5358 15.06393016271550
STARLINK-2222
1 48572U 21041V   26060.72719624  .00013391  00000+0  91634-3 0  9998
2 48572  53.0551 177.3635 0001470  97.8967 262.2189 15.06392835263864
STARLINK-3672
1 51974U 22025U   26061.05328467  .00000215  00000+0  33362-4 0  9995
2 51974  53.0548  65.1652 0001313  89.8445 270.2694 15.06392609219760
STARLINK-2106
1 47386U 21005AP  26061.17595002  .00001673  00000+0  13121-3 0  9997
2 47386  53.0552  65.3503 0001357  97.4991 262.6153 15.06392264282338
STARLINK-2111
1 47390U 21005AT  26061.08473228  .00000603  00000+0  59398-4 0  9996
2 47390  53.0545  95.7590 0001365  86.1047 274.0098 15.06391360281895
STARLINK-2235
1 48581U 21041AE  26061.14600943 -.00000034  00000+0  16591-4 0  9999
2 48581  53.0546 130.4960 0001369  91.5695 268.5450 15.06391251264564
STARLINK-2699
1 48433U 21040F   26061.03592402  .00000147  00000+0  28766-4 0  9993
2 48433  53.0559 186.2573 0001348  87.6975 272.4168 15.06390677265884
STARLINK-2581
1 48412U 21038BM  26061.01936522  .00002027  00000+0  15496-3 0  9994
2 48412  53.0532 326.4876 0001195  87.8541 272.2585 15.06390623266857
STARLINK-2413
1 47827U 21018AS  26060.82489774  .00000103  00000+0  25786-4 0  9998
2 47827  53.0541 277.1649 0001401  99.1939 260.9209 15.06389259275606
STARLINK-2523
1 48306U 21036AG  26061.14462174  .00002992  00000+0  21972-3 0  9992
2 48306  53.0546 125.4919 0001320  84.6298 275.4841 15.06388810267039
STARLINK-1579
1 46083U 20055BJ  26061.15243573  .00001241  00000+0  10223-3 0  9996
2 46083  53.0560 130.4477 0001447  90.9621 269.1533 15.06388627308164
STARLINK-2711
1 48673U 21044AM  26061.18701402  .00000674  00000+0  64162-4 0  9996
2 48673  53.0563 145.3005 0001193  87.3261 272.7864 15.06388526262719
STARLINK-2487
1 48144U 21027BE  26061.08012712 -.00000525  00000+0 -16356-4 0  9997
2 48144  53.0560 185.7799 0001250  86.1038 274.0094 15.06387951271542
STARLINK-2220
1 48570U 21041T   26061.05525249  .00000559  00000+0  56425-4 0  9993
2 48570  53.0549 175.8896 0001234 108.2963 251.8160 15.06386314263905
STARLINK-1578
1 46082U 20055BH  26061.18287840  .00000782  00000+0  71381-4 0  9995
2 46082  53.0550 130.3188 0001338 102.0531 258.0608 15.06383227308176
STARLINK-2427
1 47837U 21018BC  26060.99534574  .00001120  00000+0  94130-4 0  9995
2 47837  53.0544 266.1587 0001405  84.2373 275.8776 15.06383127275725
STARLINK-2119
1 47397U 21005BA  26061.11422735 -.00000036  00000+0  16471-4 0  9990
2 47397  53.0544  95.6269 0001394  91.7638 268.3510 15.06380326281900
STARLINK-2241
1 48586U 21041AK  26061.04420364 -.00000677  00000+0 -26590-4 0  9994
2 48586  53.0554 175.9410 0001422  78.8500 281.2649 15.06369217263901
